{
  "type": "FeatureCollection",
  "features": [
    {
      "type": "Feature",
      "properties": {
        "norad_id": 66549,
        "name": "SHIJIAN-28 (SJ-28)",
        "group": "last-30-days",
        "lat": -1.5739223561010713,
        "lon": 113.31094973166219,
        "alt_km": 35787.06761726228,
        "timestamp": "2025-12-26T17:24:53.438169+00:00",
        "meta_object_name": "SHIJIAN-28 (SJ-28)",
        "meta_object_id": "2025-277A",
        "meta_epoch": "2025-12-25T13:29:07.948320",
        "meta_mean_motion": 1.0026485,
        "meta_eccentricity": 9.97e-05,
        "meta_inclination": 4.9871,
        "meta_ra_of_asc_node": 274.7549,
        "meta_arg_of_pericenter": 127.1328,
        "meta_mean_anomaly": 11.4336,
        "meta_ephemeris_type": 0,
        "meta_classification_type": "U",
        "meta_norad_cat_id": 66549,
        "meta_element_set_no": 999,
        "meta_rev_at_epoch": 41,
        "meta_bstar": 0,
        "meta_mean_motion_dot": -3.37e-06,
        "meta_mean_motion_ddot": 0,
        "tle_line1": "1 66549U 25277A   25359.56189755 -.00000337  00000+0  00000+0 0  9995",
        "tle_line2": "2 66549   4.9871 274.7549 0000997 127.1328  11.4336  1.00264850   417"
      },
      "geometry": {
        "type": "Point",
        "coordinates": [
          113.31094973166219,
          -1.5739223561010713
        ]
      }
    },
    {
      "type": "Feature",
      "properties": {
        "norad_id": 66550,
        "name": "CZ-7A R/B",
        "group": "last-30-days",
        "lat": -14.337743422593796,
        "lon": 170.23955317701345,
        "alt_km": 1860.1422193525605,
        "timestamp": "2025-12-26T17:24:53.438223+00:00",
        "meta_object_name": "CZ-7A R/B",
        "meta_object_id": "2025-277B",
        "meta_epoch": "2025-12-23T05:53:12.433056",
        "meta_mean_motion": 3.27661077,
        "meta_eccentricity": 0.66094342,
        "meta_inclination": 14.3426,
        "meta_ra_of_asc_node": 263.9223,
        "meta_arg_of_pericenter": 200.4471,
        "meta_mean_anomaly": 110.5172,
        "meta_ephemeris_type": 0,
        "meta_classification_type": "U",
        "meta_norad_cat_id": 66550,
        "meta_element_set_no": 999,
        "meta_rev_at_epoch": 65,
        "meta_bstar": 0.0068493476,
        "meta_mean_motion_dot": 0.10979967,
        "meta_mean_motion_ddot": 1.8894821e-05,
        "tle_line1": "1 66550U 25277B   25357.24528279  .10979967  18895-4  68493-2 0  9991",
        "tle_line2": "2 66550  14.3426 263.9223 6609434 200.4471 110.5172  3.27661077   658"
      },
      "geometry": {
        "type": "Point",
        "coordinates": [
          170.23955317701345,
          -14.337743422593796
        ]
      }
    },
    {
      "type": "Feature",
      "properties": {
        "norad_id": 66554,
        "name": "GLOBAL-33",
        "group": "last-30-days",
        "lat": -32.676731699771864,
        "lon": -158.32914210901848,
        "alt_km": 470.79603915570533,
        "timestamp": "2025-12-26T17:24:53.438251+00:00",
        "meta_object_name": "GLOBAL-33",
        "meta_object_id": "2025-267A",
        "meta_epoch": "2025-12-26T07:00:36.918144",
        "meta_mean_motion": 15.31789204,
        "meta_eccentricity": 0.00049594,
        "meta_inclination": 42.0213,
        "meta_ra_of_asc_node": 338.7502,
        "meta_arg_of_pericenter": 185.8962,
        "meta_mean_anomaly": 174.1818,
        "meta_ephemeris_type": 0,
        "meta_classification_type": "U",
        "meta_norad_cat_id": 66554,
        "meta_element_set_no": 999,
        "meta_rev_at_epoch": 548,
        "meta_bstar": 0.00047882598,
        "meta_mean_motion_dot": 0.00014797,
        "meta_mean_motion_ddot": 0,
        "tle_line1": "1 66554U 25267A   25360.29209396  .00014797  00000+0  47883-3 0  9994",
        "tle_line2": "2 66554  42.0213 338.7502 0004959 185.8962 174.1818 15.31789204  5481"
      },
      "geometry": {
        "type": "Point",
        "coordinates": [
          -158.32914210901848,
          -32.676731699771864
        ]
      }
    },
    {
      "type": "Feature",
      "properties": {
        "norad_id": 66557,
        "name": "STARLINK-35699",
        "group": "last-30-days",
        "lat": 39.8250258235709,
        "lon": 103.07988510346907,
        "alt_km": 460.2551014293749,
        "timestamp": "2025-12-26T17:24:53.438264+00:00",
        "meta_object_name": "STARLINK-35699",
        "meta_object_id": "2025-268A",
        "meta_epoch": "2025-12-26T06:00:02.999808",
        "meta_mean_motion": 15.35490008,
        "meta_eccentricity": 0.00012239,
        "meta_inclination": 43.0005,
        "meta_ra_of_asc_node": 42.303,
        "meta_arg_of_pericenter": 256.1046,
        "meta_mean_anomaly": 63.6506,
        "meta_ephemeris_type": 0,
        "meta_classification_type": "U",
        "meta_norad_cat_id": 66557,
        "meta_element_set_no": 999,
        "meta_rev_at_epoch": 606,
        "meta_bstar": -0.064142997,
        "meta_mean_motion_dot": -0.02042558,
        "meta_mean_motion_ddot": 0,
        "tle_line1": "1 66557U 25268A   25360.25003472 -.02042558  00000+0 -64143-1 0  9997",
        "tle_line2": "2 66557  43.0005  42.3030 0001223 256.1046  63.6506 15.35490008  6060"
      },
      "geometry": {
        "type": "Point",
        "coordinates": [
          103.07988510346907,
          39.8250258235709
        ]
      }
    },
    {
      "type": "Feature",
      "properties": {
        "norad_id": 66558,
        "name": "STARLINK-35695",
        "group": "last-30-days",
        "lat": 42.90981577761118,
        "lon": 125.52598204331775,
        "alt_km": 457.3888178940824,
        "timestamp": "2025-12-26T17:24:53.438275+00:00",
        "meta_object_name": "STARLINK-35695",
        "meta_object_id": "2025-268B",
        "meta_epoch": "2025-12-26T06:00:02.999808",
        "meta_mean_motion": 15.36330401,
        "meta_eccentricity": 0.00013275,
        "meta_inclination": 43.0004,
        "meta_ra_of_asc_node": 42.2657,
        "meta_arg_of_pericenter": 259.3553,
        "meta_mean_anomaly": 76.0484,
        "meta_ephemeris_type": 0,
        "meta_classification_type": "U",
        "meta_norad_cat_id": 66558,
        "meta_element_set_no": 999,
        "meta_rev_at_epoch": 606,
        "meta_bstar": -0.062724567,
        "meta_mean_motion_dot": -0.0201756,
        "meta_mean_motion_ddot": 0,
        "tle_line1": "1 66558U 25268B   25360.25003472 -.02017560  00000+0 -62725-1 0  9997",
        "tle_line2": "2 66558  43.0004  42.2657 0001327 259.3553  76.0484 15.36330401  6061"
      },
      "geometry": {
        "type": "Point",
        "coordinates": [
          125.52598204331775,
          42.90981577761118
        ]
      }
    },
    {
      "type": "Feature",
      "properties": {
        "norad_id": 66559,
        "name": "STARLINK-35419",
        "group": "last-30-days",
        "lat": 6.964692619906623,
        "lon": -148.1869498578352,
        "alt_km": 447.1268419280286,
        "timestamp": "2025-12-26T17:24:53.438287+00:00",
        "meta_object_name": "STARLINK-35419",
        "meta_object_id": "2025-268C",
        "meta_epoch": "2025-12-26T06:00:02.999808",
        "meta_mean_motion": 15.41482916,
        "meta_eccentricity": 0.00014388,
        "meta_inclination": 43.0012,
        "meta_ra_of_asc_node": 42.0853,
        "meta_arg_of_pericenter": 273.2794,
        "meta_mean_anomaly": 135.9521,
        "meta_ephemeris_type": 0,
        "meta_classification_type": "U",
        "meta_norad_cat_id": 66559,
        "meta_element_set_no": 999,
        "meta_rev_at_epoch": 606,
        "meta_bstar": -0.054356976,
        "meta_mean_motion_dot": -0.02067428,
        "meta_mean_motion_ddot": 0,
        "tle_line1": "1 66559U 25268C   25360.25003472 -.02067428  00000+0 -54357-1 0  9998",
        "tle_line2": "2 66559  43.0012  42.0853 0001438 273.2794 135.9521 15.41482916  6064"
      },
      "geometry": {
        "type": "Point",
        "coordinates": [
          -148.1869498578352,
          6.964692619906623
        ]
      }
    },
    {
      "type": "Feature",
      "properties": {
        "norad_id": 66560,
        "name": "STARLINK-35411",
        "group": "last-30-days",
        "lat": 0.8053202941447414,
        "lon": -141.5409506929402,
        "alt_km": 446.11477069528974,
        "timestamp": "2025-12-26T17:24:53.438298+00:00",
        "meta_object_name": "STARLINK-35411",
        "meta_object_id": "2025-268D",
        "meta_epoch": "2025-12-26T06:00:02.999808",
        "meta_mean_motion": 15.42013867,
        "meta_eccentricity": 0.00013538,
        "meta_inclination": 43.0008,
        "meta_ra_of_asc_node": 42.0654,
        "meta_arg_of_pericenter": 269.4979,
        "meta_mean_anomaly": 147.8802,
        "meta_ephemeris_type": 0,
        "meta_classification_type": "U",
        "meta_norad_cat_id": 66560,
        "meta_element_set_no": 999,
        "meta_rev_at_epoch": 606,
        "meta_bstar": -0.053313418,
        "meta_mean_motion_dot": -0.02064707,
        "meta_mean_motion_ddot": 0,
        "tle_line1": "1 66560U 25268D   25360.25003472 -.02064707  00000+0 -53313-1 0  9998",
        "tle_line2": "2 66560  43.0008  42.0654 0001353 269.4979 147.8802 15.42013867  6068"
      },
      "geometry": {
        "type": "Point",
        "coordinates": [
          -141.5409506929402,
          0.8053202941447414
        ]
      }
    }
  ]
}